[{"OBJECT_NAME":"STARLINK-34037","OBJECT_ID":"2025-093M","EPOCH":"2026-03-09T10:18:13.972896","MEAN_MOTION":15.27594784,"ECCENTRICITY":9.597e-5,"INCLINATION":42.9975,"RA_OF_ASC_NODE":79.2583,"ARG_OF_PERICENTER":132.733,"MEAN_ANOMALY":227.3602,"EPHEMERIS_TYPE":0,"CLASSIFICATION_TYPE":"U","NORAD_CAT_ID":63847,"ELEMENT_SET_NO":999,"REV_AT_EPOCH":4793,"BSTAR":0.00086017632,"MEAN_MOTION_DOT":0.00023494,"MEAN_MOTION_DDOT":0},{"OBJECT_NAME":"CZ-6A DEB","OBJECT_ID":"2022-151SD","EPOCH":"2026-03-09T21:25:15.700512","MEAN_MOTION":15.24469357,"ECCENTRICITY":0.00248717,"INCLINATION":98.6538,"RA_OF_ASC_NODE":157.5128,"ARG_OF_PERICENTER":174.047,"MEAN_ANOMALY":186.1065,"EPHEMERIS_TYPE":0,"CLASSIFICATION_TYPE":"U","NORAD_CAT_ID":54940,"ELEMENT_SET_NO":999,"REV_AT_EPOCH":17680,"BSTAR":0.0087519903,"MEAN_MOTION_DOT":0.00223015,"MEAN_MOTION_DDOT":0}]
